ONEWEB-0681             
1 56717U 23068H   25354.05411448  .00000073  00000+0  14576-3 0  9996
2 56717  87.9222 279.7050 0002668  91.7910 268.3529 13.21826198127429
ONEWEB-0682             
1 56718U 23068J   25353.84295629  .00000096  00000+0  22012-3 0  9993
2 56718  87.9000 294.9849 0001462  88.7047 271.4251 13.15547437125870
ONEWEB-0683             
1 56719U 23068K   25354.09251065 -.00000118  00000+0 -34798-3 0  9999
2 56719  87.9010 294.9201 0001561  81.0441 279.0866 13.15550396125872
ONEWEB-0684             
1 56720U 23068L   25354.10043237 -.00000092  00000+0 -27827-3 0  9999
2 56720  87.9006 294.9129 0002444  42.7467 317.3853 13.15548451125704
ONEWEB-0686             
1 56721U 23068M   25354.15467937  .00039058  00000+0  10339+0 0  9990
2 56721  87.9009 264.4599 0001890  66.7343 293.3986 13.15474583128150
ONEWEB-0694             
1 56722U 23068N   25354.16159286 -.00000069  00000+0 -21320-3 0  9995
2 56722  87.9058 264.3867 0001224  82.9911 277.1360 13.16595747128214
ONEWEB-0696             
1 56723U 23068P   25354.13370581  .00000171  00000+0  42003-3 0  9999
2 56723  87.8998 294.9587 0002055  69.4317 290.7034 13.15550498125824
ONEWEB-0703             
1 56724U 23068Q   25354.14320879  .00000175  00000+0  43070-3 0  9995
2 56724  87.8997 294.9385 0002826  69.6116 290.5317 13.15551087125710
ONEWEB-0721             
1 56725U 23068R   25353.82672508  .00000080  00000+0  15754-3 0  9992
2 56725  86.6801 142.7363 0001442  98.5816 261.5480 13.22455176134235
ONEWEB-0015             
1 61594U 24188A   25354.16465183  .00000509  00000+0  13990-2 0  9998
2 61594  87.8847  56.7481 0002188 115.3888 244.7466 13.11415785 60996
ONEWEB-0687             
1 61595U 24188B   25354.17328851  .00000008  00000+0 -12524-4 0  9999
2 61595  87.9096  41.4905 0001710 117.7945 242.3360 13.17647645 62320
ONEWEB-0688             
1 61596U 24188C   25354.05010907  .00000028  00000+0  40097-4 0  9994
2 61596  87.9090  41.5152 0002791 122.3149 237.8253 13.17648004 62306
ONEWEB-0689             
1 61597U 24188D   25353.89335656 -.00000371  00000+0 -10829-2 0  9998
2 61597  87.8841  56.7369 0001510 109.3306 250.7986 13.11413455 60956
ONEWEB-0690             
1 61598U 24188E   25354.13241599 -.00000493  00000+0 -14261-2 0  9998
2 61598  87.8863  56.7037 0002253  86.9534 273.1852 13.11414306 61162
ONEWEB-0691             
1 61599U 24188F   25354.20362302 -.00000443  00000+0 -12869-2 0  9990
2 61599  87.8836  56.5893 0002023 113.4254 246.7087 13.11413741 61024
ONEWEB-0692             
1 61600U 24188G   25354.22397694 -.00000009  00000+0 -61705-4 0  9990
2 61600  87.8849  56.7299 0000988  78.6161 281.5078 13.11418874 61018
ONEWEB-0693             
1 61601U 24188H   25354.13786267  .00000057  00000+0  11483-3 0  9997
2 61601  87.9096  41.5176 0002580  90.4196 269.7232 13.17650153 62307
