[{"OBJECT_NAME":"ONEWEB-0681","OBJECT_ID":"2023-068H","EPOCH":"2025-12-20T01:17:55.491072","MEAN_MOTION":13.21826198,"ECCENTRICITY":0.00026682,"INCLINATION":87.9222,"RA_OF_ASC_NODE":279.705,"ARG_OF_PERICENTER":91.791,"MEAN_ANOMALY":268.3529,"EPHEMERIS_TYPE":0,"CLASSIFICATION_TYPE":"U","NORAD_CAT_ID":56717,"ELEMENT_SET_NO":999,"REV_AT_EPOCH":12742,"BSTAR":0.00014576312,"MEAN_MOTION_DOT":7.3e-7,"MEAN_MOTION_DDOT":0},{"OBJECT_NAME":"ONEWEB-0682","OBJECT_ID":"2023-068J","EPOCH":"2025-12-19T20:13:51.423456","MEAN_MOTION":13.15547437,"ECCENTRICITY":0.00014621,"INCLINATION":87.9,"RA_OF_ASC_NODE":294.9849,"ARG_OF_PERICENTER":88.7047,"MEAN_ANOMALY":271.4251,"EPHEMERIS_TYPE":0,"CLASSIFICATION_TYPE":"U","NORAD_CAT_ID":56718,"ELEMENT_SET_NO":999,"REV_AT_EPOCH":12587,"BSTAR":0.00022012037,"MEAN_MOTION_DOT":9.6e-7,"MEAN_MOTION_DDOT":0},{"OBJECT_NAME":"ONEWEB-0683","OBJECT_ID":"2023-068K","EPOCH":"2025-12-20T02:13:12.920160","MEAN_MOTION":13.15550396,"ECCENTRICITY":0.00015616,"INCLINATION":87.901,"RA_OF_ASC_NODE":294.9201,"ARG_OF_PERICENTER":81.0441,"MEAN_ANOMALY":279.0866,"EPHEMERIS_TYPE":0,"CLASSIFICATION_TYPE":"U","NORAD_CAT_ID":56719,"ELEMENT_SET_NO":999,"REV_AT_EPOCH":12587,"BSTAR":-0.000347978,"MEAN_MOTION_DOT":-1.18e-6,"MEAN_MOTION_DDOT":0},{"OBJECT_NAME":"ONEWEB-0684","OBJECT_ID":"2023-068L","EPOCH":"2025-12-20T02:24:37.356768","MEAN_MOTION":13.15548451,"ECCENTRICITY":0.00024449,"INCLINATION":87.9006,"RA_OF_ASC_NODE":294.9129,"ARG_OF_PERICENTER":42.7467,"MEAN_ANOMALY":317.3853,"EPHEMERIS_TYPE":0,"CLASSIFICATION_TYPE":"U","NORAD_CAT_ID":56720,"ELEMENT_SET_NO":999,"REV_AT_EPOCH":12570,"BSTAR":-0.00027826715,"MEAN_MOTION_DOT":-9.2e-7,"MEAN_MOTION_DDOT":0},{"OBJECT_NAME":"ONEWEB-0686","OBJECT_ID":"2023-068M","EPOCH":"2025-12-20T03:42:44.297568","MEAN_MOTION":13.15474583,"ECCENTRICITY":0.00018905,"INCLINATION":87.9009,"RA_OF_ASC_NODE":264.4599,"ARG_OF_PERICENTER":66.7343,"MEAN_ANOMALY":293.3986,"EPHEMERIS_TYPE":0,"CLASSIFICATION_TYPE":"U","NORAD_CAT_ID":56721,"ELEMENT_SET_NO":999,"REV_AT_EPOCH":12815,"BSTAR":0.10338718,"MEAN_MOTION_DOT":0.00039058,"MEAN_MOTION_DDOT":0},{"OBJECT_NAME":"ONEWEB-0694","OBJECT_ID":"2023-068N","EPOCH":"2025-12-20T03:52:41.623104","MEAN_MOTION":13.16595747,"ECCENTRICITY":0.00012244,"INCLINATION":87.9058,"RA_OF_ASC_NODE":264.3867,"ARG_OF_PERICENTER":82.9911,"MEAN_ANOMALY":277.136,"EPHEMERIS_TYPE":0,"CLASSIFICATION_TYPE":"U","NORAD_CAT_ID":56722,"ELEMENT_SET_NO":999,"REV_AT_EPOCH":12821,"BSTAR":-0.00021320181,"MEAN_MOTION_DOT":-6.9e-7,"MEAN_MOTION_DDOT":0},{"OBJECT_NAME":"ONEWEB-0696","OBJECT_ID":"2023-068P","EPOCH":"2025-12-20T03:12:32.181984","MEAN_MOTION":13.15550498,"ECCENTRICITY":0.00020553,"INCLINATION":87.8998,"RA_OF_ASC_NODE":294.9587,"ARG_OF_PERICENTER":69.4317,"MEAN_ANOMALY":290.7034,"EPHEMERIS_TYPE":0,"CLASSIFICATION_TYPE":"U","NORAD_CAT_ID":56723,"ELEMENT_SET_NO":999,"REV_AT_EPOCH":12582,"BSTAR":0.00042002793,"MEAN_MOTION_DOT":1.71e-6,"MEAN_MOTION_DDOT":0},{"OBJECT_NAME":"ONEWEB-0703","OBJECT_ID":"2023-068Q","EPOCH":"2025-12-20T03:26:13.239456","MEAN_MOTION":13.15551087,"ECCENTRICITY":0.00028261,"INCLINATION":87.8997,"RA_OF_ASC_NODE":294.9385,"ARG_OF_PERICENTER":69.6116,"MEAN_ANOMALY":290.5317,"EPHEMERIS_TYPE":0,"CLASSIFICATION_TYPE":"U","NORAD_CAT_ID":56724,"ELEMENT_SET_NO":999,"REV_AT_EPOCH":12571,"BSTAR":0.00043070417,"MEAN_MOTION_DOT":1.75e-6,"MEAN_MOTION_DDOT":0},{"OBJECT_NAME":"ONEWEB-0721","OBJECT_ID":"2023-068R","EPOCH":"2025-12-19T19:50:29.046912","MEAN_MOTION":13.22455176,"ECCENTRICITY":0.00014423,"INCLINATION":86.6801,"RA_OF_ASC_NODE":142.7363,"ARG_OF_PERICENTER":98.5816,"MEAN_ANOMALY":261.548,"EPHEMERIS_TYPE":0,"CLASSIFICATION_TYPE":"U","NORAD_CAT_ID":56725,"ELEMENT_SET_NO":999,"REV_AT_EPOCH":13423,"BSTAR":0.00015753727,"MEAN_MOTION_DOT":8.0e-7,"MEAN_MOTION_DDOT":0},{"OBJECT_NAME":"ONEWEB-0015","OBJECT_ID":"2024-188A","EPOCH":"2025-12-20T03:57:05.918112","MEAN_MOTION":13.11415785,"ECCENTRICITY":0.00021884,"INCLINATION":87.8847,"RA_OF_ASC_NODE":56.7481,"ARG_OF_PERICENTER":115.3888,"MEAN_ANOMALY":244.7466,"EPHEMERIS_TYPE":0,"CLASSIFICATION_TYPE":"U","NORAD_CAT_ID":61594,"ELEMENT_SET_NO":999,"REV_AT_EPOCH":6099,"BSTAR":0.0013990131,"MEAN_MOTION_DOT":5.09e-6,"MEAN_MOTION_DDOT":0},{"OBJECT_NAME":"ONEWEB-0687","OBJECT_ID":"2024-188B","EPOCH":"2025-12-20T04:09:32.127264","MEAN_MOTION":13.17647645,"ECCENTRICITY":0.00017103,"INCLINATION":87.9096,"RA_OF_ASC_NODE":41.4905,"ARG_OF_PERICENTER":117.7945,"MEAN_ANOMALY":242.336,"EPHEMERIS_TYPE":0,"CLASSIFICATION_TYPE":"U","NORAD_CAT_ID":61595,"ELEMENT_SET_NO":999,"REV_AT_EPOCH":6232,"BSTAR":-1.2523835e-5,"MEAN_MOTION_DOT":8.0e-8,"MEAN_MOTION_DDOT":0},{"OBJECT_NAME":"ONEWEB-0688","OBJECT_ID":"2024-188C","EPOCH":"2025-12-20T01:12:09.423648","MEAN_MOTION":13.17648004,"ECCENTRICITY":0.00027918,"INCLINATION":87.909,"RA_OF_ASC_NODE":41.5152,"ARG_OF_PERICENTER":122.3149,"MEAN_ANOMALY":237.8253,"EPHEMERIS_TYPE":0,"CLASSIFICATION_TYPE":"U","NORAD_CAT_ID":61596,"ELEMENT_SET_NO":999,"REV_AT_EPOCH":6230,"BSTAR":4.0097169e-5,"MEAN_MOTION_DOT":2.8e-7,"MEAN_MOTION_DDOT":0},{"OBJECT_NAME":"ONEWEB-0689","OBJECT_ID":"2024-188D","EPOCH":"2025-12-19T21:26:26.006784","MEAN_MOTION":13.11413455,"ECCENTRICITY":0.000151,"INCLINATION":87.8841,"RA_OF_ASC_NODE":56.7369,"ARG_OF_PERICENTER":109.3306,"MEAN_ANOMALY":250.7986,"EPHEMERIS_TYPE":0,"CLASSIFICATION_TYPE":"U","NORAD_CAT_ID":61597,"ELEMENT_SET_NO":999,"REV_AT_EPOCH":6095,"BSTAR":-0.0010829,"MEAN_MOTION_DOT":-3.71e-6,"MEAN_MOTION_DDOT":0},{"OBJECT_NAME":"ONEWEB-0690","OBJECT_ID":"2024-188E","EPOCH":"2025-12-20T03:10:40.741536","MEAN_MOTION":13.11414306,"ECCENTRICITY":0.00022535,"INCLINATION":87.8863,"RA_OF_ASC_NODE":56.7037,"ARG_OF_PERICENTER":86.9534,"MEAN_ANOMALY":273.1852,"EPHEMERIS_TYPE":0,"CLASSIFICATION_TYPE":"U","NORAD_CAT_ID":61598,"ELEMENT_SET_NO":999,"REV_AT_EPOCH":6116,"BSTAR":-0.0014261233,"MEAN_MOTION_DOT":-4.93e-6,"MEAN_MOTION_DDOT":0},{"OBJECT_NAME":"ONEWEB-0691","OBJECT_ID":"2024-188F","EPOCH":"2025-12-20T04:53:13.028928","MEAN_MOTION":13.11413741,"ECCENTRICITY":0.00020231,"INCLINATION":87.8836,"RA_OF_ASC_NODE":56.5893,"ARG_OF_PERICENTER":113.4254,"MEAN_ANOMALY":246.7087,"EPHEMERIS_TYPE":0,"CLASSIFICATION_TYPE":"U","NORAD_CAT_ID":61599,"ELEMENT_SET_NO":999,"REV_AT_EPOCH":6102,"BSTAR":-0.0012868772,"MEAN_MOTION_DOT":-4.43e-6,"MEAN_MOTION_DDOT":0},{"OBJECT_NAME":"ONEWEB-0692","OBJECT_ID":"2024-188G","EPOCH":"2025-12-20T05:22:31.607616","MEAN_MOTION":13.11418874,"ECCENTRICITY":9.88e-5,"INCLINATION":87.8849,"RA_OF_ASC_NODE":56.7299,"ARG_OF_PERICENTER":78.6161,"MEAN_ANOMALY":281.5078,"EPHEMERIS_TYPE":0,"CLASSIFICATION_TYPE":"U","NORAD_CAT_ID":61600,"ELEMENT_SET_NO":999,"REV_AT_EPOCH":6101,"BSTAR":-6.1705459e-5,"MEAN_MOTION_DOT":-9.0e-8,"MEAN_MOTION_DDOT":0},{"OBJECT_NAME":"ONEWEB-0693","OBJECT_ID":"2024-188H","EPOCH":"2025-12-20T03:18:31.334688","MEAN_MOTION":13.17650153,"ECCENTRICITY":0.00025806,"INCLINATION":87.9096,"RA_OF_ASC_NODE":41.5176,"ARG_OF_PERICENTER":90.4196,"MEAN_ANOMALY":269.7232,"EPHEMERIS_TYPE":0,"CLASSIFICATION_TYPE":"U","NORAD_CAT_ID":61601,"ELEMENT_SET_NO":999,"REV_AT_EPOCH":6230,"BSTAR":0.00011483104,"MEAN_MOTION_DOT":5.7e-7,"MEAN_MOTION_DDOT":0}]
